CCSDS_OMM_VERS = 2.0
CREATION_DATE  = 
ORIGINATOR     = 

OBJECT_NAME    = SL-14 R/B
OBJECT_ID      = 1991-042B
CENTER_NAME    = EARTH
REF_FRAME      = TEME
TIME_SYSTEM    = UTC
MEAN_ELEMENT_THEORY = SGP/SGP4

EPOCH          = 2026-02-03T02:47:58.281792
MEAN_MOTION    = 14.81795955
ECCENTRICITY   = .00170326
INCLINATION    = 82.4904
RA_OF_ASC_NODE = 252.6104
ARG_OF_PERICENTER = 359.9963
MEAN_ANOMALY   = 0.1247

EPHEMERIS_TYPE = 0
CLASSIFICATION_TYPE = U
NORAD_CAT_ID   = 21423
ELEMENT_SET_NO = 999
REV_AT_EPOCH   = 84795
BSTAR          = .4600884E-4
MEAN_MOTION_DOT = .387E-5
MEAN_MOTION_DDOT = 0

CCSDS_OMM_VERS = 2.0
CREATION_DATE  = 
ORIGINATOR     = 

OBJECT_NAME    = ERS-1
OBJECT_ID      = 1991-050A
CENTER_NAME    = EARTH
REF_FRAME      = TEME
TIME_SYSTEM    = UTC
MEAN_ELEMENT_THEORY = SGP/SGP4

EPOCH          = 2026-02-03T00:15:55.590912
MEAN_MOTION    = 14.39419465
ECCENTRICITY   = .00310605
INCLINATION    = 98.7895
RA_OF_ASC_NODE = 51.3737
ARG_OF_PERICENTER = 306.3221
MEAN_ANOMALY   = 53.5099

EPHEMERIS_TYPE = 0
CLASSIFICATION_TYPE = U
NORAD_CAT_ID   = 21574
ELEMENT_SET_NO = 999
REV_AT_EPOCH   = 81074
BSTAR          = .13858824E-3
MEAN_MOTION_DOT = .387E-5
MEAN_MOTION_DDOT = 0

CCSDS_OMM_VERS = 2.0
CREATION_DATE  = 
ORIGINATOR     = 

OBJECT_NAME    = ARIANE 40 R/B
OBJECT_ID      = 1991-050F
CENTER_NAME    = EARTH
REF_FRAME      = TEME
TIME_SYSTEM    = UTC
MEAN_ELEMENT_THEORY = SGP/SGP4

EPOCH          = 2026-02-03T03:28:00.573312
MEAN_MOTION    = 14.42866575
ECCENTRICITY   = .00035061
INCLINATION    = 98.2083
RA_OF_ASC_NODE = 87.6651
ARG_OF_PERICENTER = 158.9845
MEAN_ANOMALY   = 201.1491

EPHEMERIS_TYPE = 0
CLASSIFICATION_TYPE = U
NORAD_CAT_ID   = 21610
ELEMENT_SET_NO = 999
REV_AT_EPOCH   = 81401
BSTAR          = .11173217E-3
MEAN_MOTION_DOT = .331E-5
MEAN_MOTION_DDOT = 0

CCSDS_OMM_VERS = 2.0
CREATION_DATE  = 
ORIGINATOR     = 

OBJECT_NAME    = INTERCOSMOS 25
OBJECT_ID      = 1991-086A
CENTER_NAME    = EARTH
REF_FRAME      = TEME
TIME_SYSTEM    = UTC
MEAN_ELEMENT_THEORY = SGP/SGP4

EPOCH          = 2026-02-03T05:29:33.571392
MEAN_MOTION    = 12.11905491
ECCENTRICITY   = .1486535
INCLINATION    = 82.6090
RA_OF_ASC_NODE = 330.8325
ARG_OF_PERICENTER = 191.1799
MEAN_ANOMALY   = 165.2509

EPHEMERIS_TYPE = 0
CLASSIFICATION_TYPE = U
NORAD_CAT_ID   = 21819
ELEMENT_SET_NO = 999
REV_AT_EPOCH   = 49251
BSTAR          = .14194774E-3
MEAN_MOTION_DOT = .736E-5
MEAN_MOTION_DDOT = 0

CCSDS_OMM_VERS = 2.0
CREATION_DATE  = 
ORIGINATOR     = 

OBJECT_NAME    = SL-8 R/B
OBJECT_ID      = 1992-008B
CENTER_NAME    = EARTH
REF_FRAME      = TEME
TIME_SYSTEM    = UTC
MEAN_ELEMENT_THEORY = SGP/SGP4

EPOCH          = 2026-02-03T06:21:59.958720
MEAN_MOTION    = 13.75969182
ECCENTRICITY   = .00335655
INCLINATION    = 82.9274
RA_OF_ASC_NODE = 293.3862
ARG_OF_PERICENTER = 229.6515
MEAN_ANOMALY   = 247.6008

EPHEMERIS_TYPE = 0
CLASSIFICATION_TYPE = U
NORAD_CAT_ID   = 21876
ELEMENT_SET_NO = 999
REV_AT_EPOCH   = 70468
BSTAR          = .66672526E-4
MEAN_MOTION_DOT = .8E-6
MEAN_MOTION_DDOT = 0

CCSDS_OMM_VERS = 2.0
CREATION_DATE  = 
ORIGINATOR     = 

OBJECT_NAME    = SL-8 R/B
OBJECT_ID      = 1992-020B
CENTER_NAME    = EARTH
REF_FRAME      = TEME
TIME_SYSTEM    = UTC
MEAN_ELEMENT_THEORY = SGP/SGP4

EPOCH          = 2026-02-02T22:33:53.236800
MEAN_MOTION    = 13.75543842
ECCENTRICITY   = .0029644
INCLINATION    = 82.9321
RA_OF_ASC_NODE = 179.5546
ARG_OF_PERICENTER = 37.0310
MEAN_ANOMALY   = 110.1686

EPHEMERIS_TYPE = 0
CLASSIFICATION_TYPE = U
NORAD_CAT_ID   = 21938
ELEMENT_SET_NO = 999
REV_AT_EPOCH   = 69635
BSTAR          = .98961415E-4
MEAN_MOTION_DOT = .111E-5
MEAN_MOTION_DDOT = 0

CCSDS_OMM_VERS = 2.0
CREATION_DATE  = 
ORIGINATOR     = 

OBJECT_NAME    = USA 81
OBJECT_ID      = 1992-023A
CENTER_NAME    = EARTH
REF_FRAME      = TEME
TIME_SYSTEM    = UTC
MEAN_ELEMENT_THEORY = SGP/SGP4

EPOCH          = 2026-02-03T06:55:39.317664
MEAN_MOTION    = 14.32354312
ECCENTRICITY   = .00024811
INCLINATION    = 85.0118
RA_OF_ASC_NODE = 151.2760
ARG_OF_PERICENTER = 108.1122
MEAN_ANOMALY   = 252.0341

EPHEMERIS_TYPE = 0
CLASSIFICATION_TYPE = U
NORAD_CAT_ID   = 21949
ELEMENT_SET_NO = 999
REV_AT_EPOCH   = 8986
BSTAR          = .82626386E-4
MEAN_MOTION_DOT = .243E-5
MEAN_MOTION_DDOT = 0

CCSDS_OMM_VERS = 2.0
CREATION_DATE  = 
ORIGINATOR     = 

OBJECT_NAME    = COSMOS 2219
OBJECT_ID      = 1992-076A
CENTER_NAME    = EARTH
REF_FRAME      = TEME
TIME_SYSTEM    = UTC
MEAN_ELEMENT_THEORY = SGP/SGP4

EPOCH          = 2026-02-03T05:06:27.073440
MEAN_MOTION    = 14.14077650
ECCENTRICITY   = .00205699
INCLINATION    = 71.0591
RA_OF_ASC_NODE = 90.1456
ARG_OF_PERICENTER = 254.7878
MEAN_ANOMALY   = 105.0971

EPHEMERIS_TYPE = 0
CLASSIFICATION_TYPE = U
NORAD_CAT_ID   = 22219
ELEMENT_SET_NO = 999
REV_AT_EPOCH   = 71350
BSTAR          = -.90867502E-4
MEAN_MOTION_DOT = -.221E-5
MEAN_MOTION_DDOT = 0

CCSDS_OMM_VERS = 2.0
CREATION_DATE  = 
ORIGINATOR     = 

OBJECT_NAME    = SL-16 R/B
OBJECT_ID      = 1992-076B
CENTER_NAME    = EARTH
REF_FRAME      = TEME
TIME_SYSTEM    = UTC
MEAN_ELEMENT_THEORY = SGP/SGP4

EPOCH          = 2026-02-02T01:15:35.141184
MEAN_MOTION    = 14.16852236
ECCENTRICITY   = .00119685
INCLINATION    = 70.9985
RA_OF_ASC_NODE = 263.4442
ARG_OF_PERICENTER = 158.8783
MEAN_ANOMALY   = 307.3813

EPHEMERIS_TYPE = 0
CLASSIFICATION_TYPE = U
NORAD_CAT_ID   = 22220
ELEMENT_SET_NO = 999
REV_AT_EPOCH   = 71678
BSTAR          = .16258119E-3
MEAN_MOTION_DOT = .278E-5
MEAN_MOTION_DDOT = 0

CCSDS_OMM_VERS = 2.0
CREATION_DATE  = 
ORIGINATOR     = 

OBJECT_NAME    = COSMOS 2221
OBJECT_ID      = 1992-080A
CENTER_NAME    = EARTH
REF_FRAME      = TEME
TIME_SYSTEM    = UTC
MEAN_ELEMENT_THEORY = SGP/SGP4

EPOCH          = 2026-02-03T06:15:15.425280
MEAN_MOTION    = 14.96055249
ECCENTRICITY   = .00132895
INCLINATION    = 82.5067
RA_OF_ASC_NODE = 312.0516
ARG_OF_PERICENTER = 313.9635
MEAN_ANOMALY   = 46.0490

EPHEMERIS_TYPE = 0
CLASSIFICATION_TYPE = U
NORAD_CAT_ID   = 22236
ELEMENT_SET_NO = 999
REV_AT_EPOCH   = 77564
BSTAR          = .21890309E-3
MEAN_MOTION_DOT = .2487E-4
MEAN_MOTION_DDOT = 0

CCSDS_OMM_VERS = 2.0
CREATION_DATE  = 
ORIGINATOR     = 

OBJECT_NAME    = SL-16 R/B
OBJECT_ID      = 1992-093B
CENTER_NAME    = EARTH
REF_FRAME      = TEME
TIME_SYSTEM    = UTC
MEAN_ELEMENT_THEORY = SGP/SGP4

EPOCH          = 2026-02-03T06:03:28.493568
MEAN_MOTION    = 14.15442109
ECCENTRICITY   = .00050065
INCLINATION    = 71.0207
RA_OF_ASC_NODE = 76.5620
ARG_OF_PERICENTER = 329.5975
MEAN_ANOMALY   = 30.4857

EPHEMERIS_TYPE = 0
CLASSIFICATION_TYPE = U
NORAD_CAT_ID   = 22285
ELEMENT_SET_NO = 999
REV_AT_EPOCH   = 70828
BSTAR          = -.92390055E-4
MEAN_MOTION_DOT = -.228E-5
MEAN_MOTION_DDOT = 0

CCSDS_OMM_VERS = 2.0
CREATION_DATE  = 
ORIGINATOR     = 

OBJECT_NAME    = COSMOS 2228
OBJECT_ID      = 1992-094A
CENTER_NAME    = EARTH
REF_FRAME      = TEME
TIME_SYSTEM    = UTC
MEAN_ELEMENT_THEORY = SGP/SGP4

EPOCH          = 2026-02-03T05:34:56.417088
MEAN_MOTION    = 14.97028846
ECCENTRICITY   = .00194015
INCLINATION    = 82.5163
RA_OF_ASC_NODE = 270.3052
ARG_OF_PERICENTER = 60.1101
MEAN_ANOMALY   = 300.2046

EPHEMERIS_TYPE = 0
CLASSIFICATION_TYPE = U
NORAD_CAT_ID   = 22286
ELEMENT_SET_NO = 999
REV_AT_EPOCH   = 77090
BSTAR          = .15978137E-3
MEAN_MOTION_DOT = .1872E-4
MEAN_MOTION_DDOT = 0

