SL-14 R/B               
1 21423U 91042B   26034.11664678  .00000387  00000+0  46009-4 0  9992
2 21423  82.4904 252.6104 0017032 359.9963   0.1247 14.81795955847959
ERS-1                   
1 21574U 91050A   26034.01106008  .00000387  00000+0  13859-3 0  9991
2 21574  98.7895  51.3737 0031060 306.3221  53.5099 14.39419465810747
ARIANE 40 R/B           
1 21610U 91050F   26034.14445108  .00000331  00000+0  11173-3 0  9999
2 21610  98.2083  87.6651 0003506 158.9845 201.1491 14.42866575814019
INTERCOSMOS 25          
1 21819U 91086A   26034.22886078  .00000736  00000+0  14195-3 0  9999
2 21819  82.6090 330.8325 1486535 191.1799 165.2509 12.11905491492513
SL-8 R/B                
1 21876U 92008B   26034.26527730  .00000080  00000+0  66673-4 0  9999
2 21876  82.9274 293.3862 0033565 229.6515 247.6008 13.75969182704686
SL-8 R/B                
1 21938U 92020B   26033.94019950  .00000111  00000+0  98961-4 0  9996
2 21938  82.9321 179.5546 0029644  37.0310 110.1686 13.75543842696350
USA 81                  
1 21949U 92023A   26034.28864951  .00000243  00000+0  82626-4 0  9995
2 21949  85.0118 151.2760 0002481 108.1122 252.0341 14.32354312 89868
COSMOS 2219             
1 22219U 92076A   26034.21281335 -.00000221  00000+0 -90868-4 0  9991
2 22219  71.0591  90.1456 0020569 254.7878 105.0971 14.14077650713503
SL-16 R/B               
1 22220U 92076B   26033.05249006  .00000278  00000+0  16258-3 0  9993
2 22220  70.9985 263.4442 0011968 158.8783 307.3813 14.16852236716780
COSMOS 2221             
1 22236U 92080A   26034.26059520  .00002487  00000+0  21890-3 0  9991
2 22236  82.5067 312.0516 0013289 313.9635  46.0490 14.96055249775643
SL-16 R/B               
1 22285U 92093B   26034.25241312 -.00000228  00000+0 -92390-4 0  9997
2 22285  71.0207  76.5620 0005006 329.5975  30.4857 14.15442109708288
COSMOS 2228             
1 22286U 92094A   26034.23259742  .00001872  00000+0  15978-3 0  9993
2 22286  82.5163 270.3052 0019401  60.1101 300.2046 14.97028846770907
